STARLINK-32092          
1 59700U 24086U   26068.05343544  .00000253  00000+0  18739-4 0  9992
2 59700  43.0043  63.5881 0001603 271.6873  88.3795 15.27581312104013
FLOCK 4G-6              
1 62660U 25009BD  26068.71061311  .00012261  00000+0  45910-3 0  9991
2 62660  97.3980 150.7943 0002380 348.2637  11.8546 15.27432125121307
